[
    {
        "Altitude(m)": 605459.0571129873,
        "Argument of Periapsis(deg)": 0.0,
        "Eccentricity": 0.0,
        "Inclination(deg)": 60.0,
        "Latitude(deg)": 27.98830593856282,
        "Longitude(deg)": 142.7986226717235,
        "Mean Anomaly(deg)": 32.72730000000001,
        "RAAN(deg)": 225.0,
        "Satellite Name": "Test1 992",
        "Satellite Number": 992,
        "Semi-Major Axis(m)": 6980739.136638005,
        "Time(s)": 0
    },
    {
        "Altitude(m)": 605535.8483303796,
        "Argument of Periapsis(deg)": 0.00010418945913296404,
        "Eccentricity": 0.0,
        "Inclination(deg)": 60.0,
        "Latitude(deg)": 28.501434988947757,
        "Longitude(deg)": 143.15556887946366,
        "Mean Anomaly(deg)": 33.34740614546182,
        "RAAN(deg)": 224.99957995086024,
        "Satellite Name": "Test1 992",
        "Satellite Number": 992,
        "Semi-Major Axis(m)": 6980739.136638005,
        "Time(s)": 10
    },
    {
        "Altitude(m)": 605614.3301497228,
        "Argument of Periapsis(deg)": 0.0002083789182659281,
        "Eccentricity": 0.0,
        "Inclination(deg)": 60.0,
        "Latitude(deg)": 29.013346506511873,
        "Longitude(deg)": 143.51637994747514,
        "Mean Anomaly(deg)": 33.967512290923636,
        "RAAN(deg)": 224.9991599017205,
        "Satellite Name": "Test1 992",
        "Satellite Number": 992,
        "Semi-Major Axis(m)": 6980739.136638005,
        "Time(s)": 20
    },
    {
        "Altitude(m)": 605694.4448787973,
        "Argument of Periapsis(deg)": 0.00031256837739889213,
        "Eccentricity": 0.0,
        "Inclination(deg)": 60.0,
        "Latitude(deg)": 29.52400321807797,
        "Longitude(deg)": 143.88116763221873,
        "Mean Anomaly(deg)": 34.5876184363855,
        "RAAN(deg)": 224.99873985258074,
        "Satellite Name": "Test1 992",
        "Satellite Number": 992,
        "Semi-Major Axis(m)": 6980739.136638005,
        "Time(s)": 30
    },
    {
        "Altitude(m)": 605776.1342160285,
        "Argument of Periapsis(deg)": 0.0004167578365318562,
        "Eccentricity": 0.0,
        "Inclination(deg)": 60.0,
        "Latitude(deg)": 30.033366853987,
        "Longitude(deg)": 144.2500466964707,
        "Mean Anomaly(deg)": 35.20772458184732,
        "RAAN(deg)": 224.99831980344103,
        "Satellite Name": "Test1 992",
        "Satellite Number": 992,
        "Semi-Major Axis(m)": 6980739.136638005,
        "Time(s)": 40
    },
    {
        "Altitude(m)": 605859.3392808457,
        "Argument of Periapsis(deg)": 0.0005209472956648203,
        "Eccentricity": 0.0,
        "Inclination(deg)": 60.0,
        "Latitude(deg)": 30.541398109364597,
        "Longitude(deg)": 144.62313396813806,
        "Mean Anomaly(deg)": 35.82783072730913,
        "RAAN(deg)": 224.99789975430127,
        "Satellite Name": "Test1 992",
        "Satellite Number": 992,
        "Semi-Major Axis(m)": 6980739.136638005,
        "Time(s)": 50
    },
    {
        "Altitude(m)": 605944.0006442571,
        "Argument of Periapsis(deg)": 0.0006251367547977843,
        "Eccentricity": 0.0,
        "Inclination(deg)": 60.0,
        "Latitude(deg)": 31.04805660402802,
        "Longitude(deg)": 145.000548912122,
        "Mean Anomaly(deg)": 36.44793687277095,
        "RAAN(deg)": 224.99747970516154,
        "Satellite Name": "Test1 992",
        "Satellite Number": 992,
        "Semi-Major Axis(m)": 6980739.136638005,
        "Time(s)": 60
    },
    {
        "Altitude(m)": 606030.0583596599,
        "Argument of Periapsis(deg)": 0.0007293262139307483,
        "Eccentricity": 0.0,
        "Inclination(deg)": 60.0,
        "Latitude(deg)": 31.553300840994055,
        "Longitude(deg)": 145.38241420219268,
        "Mean Anomaly(deg)": 37.06804301823281,
        "RAAN(deg)": 224.99705965602178,
        "Satellite Name": "Test1 992",
        "Satellite Number": 992,
        "Semi-Major Axis(m)": 6980739.136638005,
        "Time(s)": 70
    },
    {
        "Altitude(m)": 606117.4519938453,
        "Argument of Periapsis(deg)": 0.0008335156730637124,
        "Eccentricity": 0.0,
        "Inclination(deg)": 60.0,
        "Latitude(deg)": 32.057088163550645,
        "Longitude(deg)": 145.7688547798171,
        "Mean Anomaly(deg)": 37.68814916369463,
        "RAAN(deg)": 224.99663960688207,
        "Satellite Name": "Test1 992",
        "Satellite Number": 992,
        "Semi-Major Axis(m)": 6980739.136638005,
        "Time(s)": 80
    },
    {
        "Altitude(m)": 606206.1206581806,
        "Argument of Periapsis(deg)": 0.0009377051321966765,
        "Eccentricity": 0.0,
        "Inclination(deg)": 60.0,
        "Latitude(deg)": 32.55937471084869,
        "Longitude(deg)": 146.15999842547907,
        "Mean Anomaly(deg)": 38.308255309156486,
        "RAAN(deg)": 224.9962195577423,
        "Satellite Name": "Test1 992",
        "Satellite Number": 992,
        "Semi-Major Axis(m)": 6980739.136638005,
        "Time(s)": 90
    },
    {
        "Altitude(m)": 606296.0030399741,
        "Argument of Periapsis(deg)": 0.0010418945913296407,
        "Eccentricity": 0.0,
        "Inclination(deg)": 60.0,
        "Latitude(deg)": 33.06011537197651,
        "Longitude(deg)": 146.5559763293861,
        "Mean Anomaly(deg)": 38.92836145461831,
        "RAAN(deg)": 224.99579950860257,
        "Satellite Name": "Test1 992",
        "Satellite Number": 992,
        "Semi-Major Axis(m)": 6980739.136638005,
        "Time(s)": 100
    },
    {
        "Altitude(m)": 606387.0374339968,
        "Argument of Periapsis(deg)": 0.0011460840504626045,
        "Eccentricity": 0.0,
        "Inclination(deg)": 60.0,
        "Latitude(deg)": 33.55926373848324,
        "Longitude(deg)": 146.95692214842327,
        "Mean Anomaly(deg)": 39.548467600080116,
        "RAAN(deg)": 224.9953794594628,
        "Satellite Name": "Test1 992",
        "Satellite Number": 992,
        "Semi-Major Axis(m)": 6980739.136638005,
        "Time(s)": 110
    },
    {
        "Altitude(m)": 606479.1617741357,
        "Argument of Periapsis(deg)": 0.0012502735095955685,
        "Eccentricity": 0.0,
        "Inclination(deg)": 60.0,
        "Latitude(deg)": 34.05677205531048,
        "Longitude(deg)": 147.36297257481425,
        "Mean Anomaly(deg)": 40.16857374554194,
        "RAAN(deg)": 224.9949594103231,
        "Satellite Name": "Test1 992",
        "Satellite Number": 992,
        "Semi-Major Axis(m)": 6980739.136638005,
        "Time(s)": 120
    },
    {
        "Altitude(m)": 606572.3136651659,
        "Argument of Periapsis(deg)": 0.0013544629687285324,
        "Eccentricity": 0.0,
        "Inclination(deg)": 60.0,
        "Latitude(deg)": 34.552591170100676,
        "Longitude(deg)": 147.77426790328673,
        "Mean Anomaly(deg)": 40.788679891003795,
        "RAAN(deg)": 224.99453936118334,
        "Satellite Name": "Test1 992",
        "Satellite Number": 992,
        "Semi-Major Axis(m)": 6980739.136638005,
        "Time(s)": 130
    },
    {
        "Altitude(m)": 606666.4304146456,
        "Argument of Periapsis(deg)": 0.0014586524278614966,
        "Eccentricity": 0.0,
        "Inclination(deg)": 60.0,
        "Latitude(deg)": 35.04667048085392,
        "Longitude(deg)": 148.19095108350717,
        "Mean Anomaly(deg)": 41.40878603646562,
        "RAAN(deg)": 224.9941193120436,
        "Satellite Name": "Test1 992",
        "Satellite Number": 992,
        "Semi-Major Axis(m)": 6980739.136638005,
        "Time(s)": 140
    },
    {
        "Altitude(m)": 606761.4490648839,
        "Argument of Periapsis(deg)": 0.0015628418869944607,
        "Eccentricity": 0.0,
        "Inclination(deg)": 60.0,
        "Latitude(deg)": 35.53895788190036,
        "Longitude(deg)": 148.61316828313255,
        "Mean Anomaly(deg)": 42.028892181927475,
        "RAAN(deg)": 224.99369926290385,
        "Satellite Name": "Test1 992",
        "Satellite Number": 992,
        "Semi-Major Axis(m)": 6980739.136638005,
        "Time(s)": 150
    },
    {
        "Altitude(m)": 606857.3064249967,
        "Argument of Periapsis(deg)": 0.0016670313461274247,
        "Eccentricity": 0.0,
        "Inclination(deg)": 60.0,
        "Latitude(deg)": 36.02939970816608,
        "Longitude(deg)": 149.0410694481598,
        "Mean Anomaly(deg)": 42.6489983273893,
        "RAAN(deg)": 224.99327921376414,
        "Satellite Name": "Test1 992",
        "Satellite Number": 992,
        "Semi-Major Axis(m)": 6980739.136638005,
        "Time(s)": 160
    },
    {
        "Altitude(m)": 606953.9391030194,
        "Argument of Periapsis(deg)": 0.0017712208052603888,
        "Eccentricity": 0.0,
        "Inclination(deg)": 60.0,
        "Latitude(deg)": 36.51794067771432,
        "Longitude(deg)": 149.474807347209,
        "Mean Anomaly(deg)": 43.269104472851105,
        "RAAN(deg)": 224.9928591646244,
        "Satellite Name": "Test1 992",
        "Satellite Number": 992,
        "Semi-Major Axis(m)": 6980739.136638005,
        "Time(s)": 170
    },
    {
        "Altitude(m)": 607051.2835380661,
        "Argument of Periapsis(deg)": 0.001875410264393353,
        "Eccentricity": 0.0,
        "Inclination(deg)": 60.0,
        "Latitude(deg)": 37.00452383254296,
        "Longitude(deg)": 149.91453812494888,
        "Mean Anomaly(deg)": 43.88921061831293,
        "RAAN(deg)": 224.99243911548464,
        "Satellite Name": "Test1 992",
        "Satellite Number": 992,
        "Semi-Major Axis(m)": 6980739.136638005,
        "Time(s)": 180
    },
    {
        "Altitude(m)": 607149.2760325035,
        "Argument of Periapsis(deg)": 0.0019795997235263173,
        "Eccentricity": 0.0,
        "Inclination(deg)": 60.0,
        "Latitude(deg)": 37.489090477630114,
        "Longitude(deg)": 150.36042185119547,
        "Mean Anomaly(deg)": 44.509316763774784,
        "RAAN(deg)": 224.99201906634488,
        "Satellite Name": "Test1 992",
        "Satellite Number": 992,
        "Semi-Major Axis(m)": 6980739.136638005,
        "Time(s)": 190
    }
]